start=new Date('2021-12-21T00:00:00.000Z').valueOf();
sats=[{"SEMIMAJOR_AXIS":"6925.331","CLASSIFICATION_TYPE":"U","DECAY_DATE":null,"FILE":"3245895","EPHEMERIS_TYPE":"0","SITE":"AFETR","INCLINATION":"53.0525","MEAN_ELEMENT_THEORY":"SGP4","REV_AT_EPOCH":"9765","MEAN_ANOMALY":"292.5801","MEAN_MOTION":"15.06405821","CENTER_NAME":"EARTH","TIME_SYSTEM":"UTC","COUNTRY_CODE":"US","TLE_LINE2":"2 45371  53.0525 238.8891 0002658  67.5470 292.5801 15.06405821 97657","REF_FRAME":"TEME","RCS_SIZE":"LARGE","RA_OF_ASC_NODE":"238.8891","PERIOD":"95.592","TLE_LINE1":"1 45371U 20019M   21354.92406794  .00001502  00000-0  11973-3 0  9990","OBJECT_TYPE":"PAYLOAD","ARG_OF_PERICENTER":"67.5470","GP_ID":"192111571","NORAD_CAT_ID":"45371","BSTAR":"0.00011973000000","ELEMENT_SET_NO":"999","OBJECT_ID":"2020-019M","PERIAPSIS":"545.355","ECCENTRICITY":"0.00026580","APOAPSIS":"549.036","EPOCH":"2021-12-20T22:10:39.470016","LAUNCH_DATE":"2020-03-18","OBJECT_NAME":"STARLINK-1287","MEAN_MOTION_DDOT":"0.0000000000000","MEAN_MOTION_DOT":"0.00001502"},{"APOAPSIS":"548.801","LAUNCH_DATE":"2020-03-18","OBJECT_NAME":"STARLINK-1288","EPOCH":"2021-12-20T17:45:16.917696","MEAN_MOTION_DOT":"0.00000559","MEAN_MOTION_DDOT":"0.0000000000000","GP_ID":"192110319","NORAD_CAT_ID":"45372","BSTAR":"0.00005647900000","OBJECT_ID":"2020-019N","ELEMENT_SET_NO":"999","ECCENTRICITY":"0.00022580","PERIAPSIS":"545.674","RCS_SIZE":"LARGE","PERIOD":"95.593","RA_OF_ASC_NODE":"239.7317","ARG_OF_PERICENTER":"69.0638","TLE_LINE1":"1 45372U 20019N   21354.73977914  .00000559  00000-0  56479-4 0  9999","OBJECT_TYPE":"PAYLOAD","REF_FRAME":"TEME","CENTER_NAME":"EARTH","TIME_SYSTEM":"UTC","COUNTRY_CODE":"US","TLE_LINE2":"2 45372  53.0544 239.7317 0002258  69.0638 291.0593 15.06392181 97624","MEAN_MOTION":"15.06392181","MEAN_ANOMALY":"291.0593","INCLINATION":"53.0544","EPHEMERIS_TYPE":"0","SITE":"AFETR","MEAN_ELEMENT_THEORY":"SGP4","REV_AT_EPOCH":"9762","SEMIMAJOR_AXIS":"6925.373","CLASSIFICATION_TYPE":"U","DECAY_DATE":null,"FILE":"3245895"},{"MEAN_ANOMALY":"292.8653","MEAN_MOTION":"15.06412640","TIME_SYSTEM":"UTC","CENTER_NAME":"EARTH","TLE_LINE2":"2 45373  53.0524 238.9148 0002753  67.2627 292.8653 15.06412640 97656","COUNTRY_CODE":"US","CLASSIFICATION_TYPE":"U","SEMIMAJOR_AXIS":"6925.310","FILE":"3245895","DECAY_DATE":null,"MEAN_ELEMENT_THEORY":"SGP4","INCLINATION":"53.0524","EPHEMERIS_TYPE":"0","SITE":"AFETR","REV_AT_EPOCH":"9765","GP_ID":"192110569","NORAD_CAT_ID":"45373","BSTAR":"0.00020149000000","ECCENTRICITY":"0.00027530","PERIAPSIS":"545.268","OBJECT_ID":"2020-019P","ELEMENT_SET_NO":"999","APOAPSIS":"549.081","MEAN_MOTION_DOT":"0.00002722","MEAN_MOTION_DDOT":"0.0000000000000","LAUNCH_DATE":"2020-03-18","OBJECT_NAME":"STARLINK-1295","EPOCH":"2021-12-20T22:05:20.570208","REF_FRAME":"TEME","RCS_SIZE":"LARGE","ARG_OF_PERICENTER":"67.2627","OBJECT_TYPE":"PAYLOAD","TLE_LINE1":"1 45373U 20019P   21354.92037697  .00002722  00000-0  20149-3 0  9994","PERIOD":"95.591","RA_OF_ASC_NODE":"238.9148"},{"REF_FRAME":"TEME","RCS_SIZE":"LARGE","PERIOD":"95.592","RA_OF_ASC_NODE":"238.9323","ARG_OF_PERICENTER":"71.7732","OBJECT_TYPE":"PAYLOAD","TLE_LINE1":"1 45374U 20019Q   21354.91670121 -.00000523  00000-0 -16147-4 0  9992","NORAD_CAT_ID":"45374","GP_ID":"192110821","BSTAR":"-0.00001614700000","OBJECT_ID":"2020-019Q","ELEMENT_SET_NO":"999","ECCENTRICITY":"0.00027060","PERIAPSIS":"545.342","APOAPSIS":"549.090","LAUNCH_DATE":"2020-03-18","OBJECT_NAME":"STARLINK-1300","EPOCH":"2021-12-20T22:00:02.984544","MEAN_MOTION_DOT":"-0.00000523","MEAN_MOTION_DDOT":"0.0000000000000","SEMIMAJOR_AXIS":"6925.351","CLASSIFICATION_TYPE":"U","DECAY_DATE":null,"FILE":"3245895","INCLINATION":"53.0536","SITE":"AFETR","EPHEMERIS_TYPE":"0","MEAN_ELEMENT_THEORY":"SGP4","REV_AT_EPOCH":"9765","MEAN_MOTION":"15.06399161","MEAN_ANOMALY":"288.3552","CENTER_NAME":"EARTH","TIME_SYSTEM":"UTC","COUNTRY_CODE":"US","TLE_LINE2":"2 45374  53.0536 238.9323 0002706  71.7732 288.3552 15.06399161 97650"},{"ELEMENT_SET_NO":"999","OBJECT_ID":"2020-019R","ECCENTRICITY":"0.00024020","PERIAPSIS":"545.564","BSTAR":"-0.00002887400000","GP_ID":"192111072","NORAD_CAT_ID":"45375","OBJECT_NAME":"STARLINK-1302","LAUNCH_DATE":"2020-03-18","EPOCH":"2021-12-20T22:21:16.650144","MEAN_MOTION_DOT":"-0.00000712","MEAN_MOTION_DDOT":"0.0000000000000","APOAPSIS":"548.891","REF_FRAME":"TEME","PERIOD":"95.592","RA_OF_ASC_NODE":"238.8721","ARG_OF_PERICENTER":"72.9216","OBJECT_TYPE":"PAYLOAD","TLE_LINE1":"1 45375U 20019R   21354.93144271 -.00000712  00000-0 -28874-4 0  9997","RCS_SIZE":"LARGE","MEAN_MOTION":"15.06395505","MEAN_ANOMALY":"287.2036","COUNTRY_CODE":"US","TLE_LINE2":"2 45375  53.0538 238.8721 0002402  72.9216 287.2036 15.06395505 97650","CENTER_NAME":"EARTH","TIME_SYSTEM":"UTC","DECAY_DATE":null,"FILE":"3245895","SEMIMAJOR_AXIS":"6925.362","CLASSIFICATION_TYPE":"U","REV_AT_EPOCH":"9765","INCLINATION":"53.0538","SITE":"AFETR","EPHEMERIS_TYPE":"0","MEAN_ELEMENT_THEORY":"SGP4"},{"REF_FRAME":"TEME","RCS_SIZE":"LARGE","ARG_OF_PERICENTER":"69.8165","OBJECT_TYPE":"PAYLOAD","TLE_LINE1":"1 45376U 20019S   21354.88352856  .00005073  00000-0  35907-3 0  9999","PERIOD":"95.591","RA_OF_ASC_NODE":"239.0854","BSTAR":"0.00035907000000","GP_ID":"192109820","NORAD_CAT_ID":"45376","ECCENTRICITY":"0.00022650","PERIAPSIS":"545.594","OBJECT_ID":"2020-019S","ELEMENT_SET_NO":"999","APOAPSIS":"548.731","MEAN_MOTION_DOT":"0.00005073","MEAN_MOTION_DDOT":"0.0000000000000","OBJECT_NAME":"STARLINK-1304","LAUNCH_DATE":"2020-03-18","EPOCH":"2021-12-20T21:12:16.867584","CLASSIFICATION_TYPE":"U","SEMIMAJOR_AXIS":"6925.297","FILE":"3245895","DECAY_DATE":null,"MEAN_ELEMENT_THEORY":"SGP4","INCLINATION":"53.0540","SITE":"AFETR","EPHEMERIS_TYPE":"0","REV_AT_EPOCH":"9764","MEAN_ANOMALY":"290.3068","MEAN_MOTION":"15.06416744","TIME_SYSTEM":"UTC","CENTER_NAME":"EARTH","TLE_LINE2":"2 45376  53.0540 239.0854 0002265  69.8165 290.3068 15.06416744 97647","COUNTRY_CODE":"US"},{"TLE_LINE2":"2 45377  53.0535 238.9628 0002574  71.5727 288.5542 15.06396250 97652","COUNTRY_CODE":"US","TIME_SYSTEM":"UTC","CENTER_NAME":"EARTH","MEAN_ANOMALY":"288.5542","MEAN_MOTION":"15.06396250","REV_AT_EPOCH":"9765","MEAN_ELEMENT_THEORY":"SGP4","SITE":"AFETR","EPHEMERIS_TYPE":"0","INCLINATION":"53.0535","FILE":"3245895","DECAY_DATE":null,"CLASSIFICATION_TYPE":"U","SEMIMAJOR_AXIS":"6925.360","MEAN_MOTION_DDOT":"0.0000000000000","MEAN_MOTION_DOT":"0.00001067","EPOCH":"2021-12-20T21:49:26.175072","LAUNCH_DATE":"2020-03-18","OBJECT_NAME":"STARLINK-1305","APOAPSIS":"549.008","PERIAPSIS":"545.442","ECCENTRICITY":"0.00025740","OBJECT_ID":"2020-019T","ELEMENT_SET_NO":"999","BSTAR":"0.00009053100000","GP_ID":"192110070","NORAD_CAT_ID":"45377","TLE_LINE1":"1 45377U 20019T   21354.90933073  .00001067  00000-0  90531-4 0  9993","OBJECT_TYPE":"PAYLOAD","ARG_OF_PERICENTER":"71.5727","RA_OF_ASC_NODE":"238.9628","PERIOD":"95.592","RCS_SIZE":"LARGE","REF_FRAME":"TEME"},{"CLASSIFICATION_TYPE":"U","SEMIMAJOR_AXIS":"6925.317","FILE":"3245895","DECAY_DATE":null,"MEAN_ELEMENT_THEORY":"SGP4","EPHEMERIS_TYPE":"0","SITE":"AFETR","INCLINATION":"53.0547","REV_AT_EPOCH":"9765","MEAN_ANOMALY":"288.4846","MEAN_MOTION":"15.06410352","TIME_SYSTEM":"UTC","CENTER_NAME":"EARTH","TLE_LINE2":"2 45378  53.0547 239.0217 0002514  71.6416 288.4846 15.06410352 97658","COUNTRY_CODE":"US","REF_FRAME":"TEME","RCS_SIZE":"LARGE","OBJECT_TYPE":"PAYLOAD","TLE_LINE1":"1 45378U 20019U   21354.89825805  .00003280  00000-0  23895-3 0  9992","ARG_OF_PERICENTER":"71.6416","RA_OF_ASC_NODE":"239.0217","PERIOD":"95.591","BSTAR":"0.00023895000000","GP_ID":"192111321","NORAD_CAT_ID":"45378","PERIAPSIS":"545.441","ECCENTRICITY":"0.00025140","ELEMENT_SET_NO":"999","OBJECT_ID":"2020-019U","APOAPSIS":"548.923","MEAN_MOTION_DDOT":"0.0000000000000","MEAN_MOTION_DOT":"0.00003280","EPOCH":"2021-12-20T21:33:29.495520","OBJECT_NAME":"STARLINK-1310","LAUNCH_DATE":"2020-03-18"},{"OBJECT_NAME":"STARLINK-1319","LAUNCH_DATE":"2020-03-18","EPOCH":"2021-12-20T21:38:49.125408","MEAN_MOTION_DOT":"0.00002391","MEAN_MOTION_DDOT":"0.0000000000000","APOAPSIS":"548.946","ELEMENT_SET_NO":"999","OBJECT_ID":"2020-019V","ECCENTRICITY":"0.00025170","PERIAPSIS":"545.459","GP_ID":"192111572","NORAD_CAT_ID":"45379","BSTAR":"0.00017938000000","PERIOD":"95.592","RA_OF_ASC_NODE":"238.9997","ARG_OF_PERICENTER":"69.1074","TLE_LINE1":"1 45379U 20019V   21354.90195747  .00002391  00000-0  17938-3 0  9993","OBJECT_TYPE":"PAYLOAD","RCS_SIZE":"LARGE","REF_FRAME":"TEME","COUNTRY_CODE":"US","TLE_LINE2":"2 45379  53.0523 238.9997 0002517  69.1074 291.0184 15.06403586 97657","CENTER_NAME":"EARTH","TIME_SYSTEM":"UTC","MEAN_MOTION":"15.06403586","MEAN_ANOMALY":"291.0184","REV_AT_EPOCH":"9765","INCLINATION":"53.0523","EPHEMERIS_TYPE":"0","SITE":"AFETR","MEAN_ELEMENT_THEORY":"SGP4","DECAY_DATE":null,"FILE":"3245895","SEMIMAJOR_AXIS":"6925.338","CLASSIFICATION_TYPE":"U"},{"REF_FRAME":"TEME","TLE_LINE1":"1 45380U 20019W   21354.90010901  .00002892  00000-0  21291-3 0  9996","OBJECT_TYPE":"PAYLOAD","ARG_OF_PERICENTER":"86.8658","RA_OF_ASC_NODE":"219.0089","PERIOD":"95.592","RCS_SIZE":"LARGE","PERIAPSIS":"546.073","ECCENTRICITY":"0.00016210","ELEMENT_SET_NO":"999","OBJECT_ID":"2020-019W","BSTAR":"0.00021291000000","GP_ID":"192110320","NORAD_CAT_ID":"45380","MEAN_MOTION_DDOT":"0.0000000000000","MEAN_MOTION_DOT":"0.00002892","EPOCH":"2021-12-20T21:36:09.418464","LAUNCH_DATE":"2020-03-18","OBJECT_NAME":"STARLINK-1207","APOAPSIS":"548.318","FILE":"3245895","DECAY_DATE":null,"CLASSIFICATION_TYPE":"U","SEMIMAJOR_AXIS":"6925.331","REV_AT_EPOCH":"9792","MEAN_ELEMENT_THEORY":"SGP4","EPHEMERIS_TYPE":"0","SITE":"AFETR","INCLINATION":"53.0508","MEAN_ANOMALY":"273.2517","MEAN_MOTION":"15.06405808","TLE_LINE2":"2 45380  53.0508 219.0089 0001621  86.8658 273.2517 15.06405808 97924","COUNTRY_CODE":"US","TIME_SYSTEM":"UTC","CENTER_NAME":"EARTH"}];
